start=new Date('2022-02-10T00:00:00.000Z').valueOf();
sats=[{"MEAN_MOTION_DDOT":"0.0000000000000","TLE_LINE2":"2 48137  53.0568 356.3921 0001809  63.3915 296.7259 15.06398395 47859","EPHEMERIS_TYPE":"0","MEAN_ELEMENT_THEORY":"SGP4","PERIOD":"95.592","PERIAPSIS":"545.966","MEAN_MOTION_DOT":"0.00004198","LAUNCH_DATE":"2021-04-07","FILE":"3296267","NORAD_CAT_ID":"48137","SEMIMAJOR_AXIS":"6925.353","RA_OF_ASC_NODE":"356.3921","APOAPSIS":"548.471","MEAN_MOTION":"15.06398395","DECAY_DATE":null,"EPOCH":"2022-02-09T14:24:57.317760","REV_AT_EPOCH":"4785","INCLINATION":"53.0568","REF_FRAME":"TEME","OBJECT_ID":"2021-027AX","GP_ID":"195648776","ECCENTRICITY":"0.00018090","OBJECT_NAME":"STARLINK-2480","CLASSIFICATION_TYPE":"U","BSTAR":"0.00030055000000","OBJECT_TYPE":"PAYLOAD","CENTER_NAME":"EARTH","ARG_OF_PERICENTER":"63.3915","COUNTRY_CODE":"US","TLE_LINE1":"1 48137U 21027AX  22040.60066340  .00004198  00000-0  30055-3 0  9996","SITE":"AFETR","MEAN_ANOMALY":"296.7259","RCS_SIZE":"LARGE","TIME_SYSTEM":"UTC","ELEMENT_SET_NO":"999"},{"MEAN_ELEMENT_THEORY":"SGP4","PERIOD":"95.592","EPHEMERIS_TYPE":"0","TLE_LINE2":"2 48138  53.0550  16.2998 0001480  75.7894 284.3260 15.06408054 47584","MEAN_MOTION_DDOT":"0.0000000000000","FILE":"3296267","LAUNCH_DATE":"2021-04-07","MEAN_MOTION_DOT":"0.00004112","PERIAPSIS":"546.164","NORAD_CAT_ID":"48138","SEMIMAJOR_AXIS":"6925.324","RA_OF_ASC_NODE":"16.2998","APOAPSIS":"548.214","MEAN_MOTION":"15.06408054","DECAY_DATE":null,"INCLINATION":"53.0550","REV_AT_EPOCH":"4758","EPOCH":"2022-02-09T15:00:47.912256","OBJECT_ID":"2021-027AY","REF_FRAME":"TEME","GP_ID":"195648785","CLASSIFICATION_TYPE":"U","OBJECT_NAME":"STARLINK-2481","ECCENTRICITY":"0.00014800","CENTER_NAME":"EARTH","OBJECT_TYPE":"PAYLOAD","BSTAR":"0.00029471000000","COUNTRY_CODE":"US","ARG_OF_PERICENTER":"75.7894","TIME_SYSTEM":"UTC","RCS_SIZE":"LARGE","MEAN_ANOMALY":"284.3260","SITE":"AFETR","TLE_LINE1":"1 48138U 21027AY  22040.62555454  .00004112  00000-0  29471-3 0  9994","ELEMENT_SET_NO":"999"},{"ELEMENT_SET_NO":"999","RCS_SIZE":"LARGE","TIME_SYSTEM":"UTC","TLE_LINE1":"1 48139U 21027AZ  22040.35095535 -.00001041  00000-0 -51029-4 0  9999","SITE":"AFETR","MEAN_ANOMALY":"285.1375","COUNTRY_CODE":"US","ARG_OF_PERICENTER":"74.9776","CENTER_NAME":"EARTH","BSTAR":"-0.00005102900000","OBJECT_TYPE":"PAYLOAD","CLASSIFICATION_TYPE":"U","OBJECT_NAME":"STARLINK-2482","ECCENTRICITY":"0.00014660","GP_ID":"195640091","OBJECT_ID":"2021-027AZ","REF_FRAME":"TEME","REV_AT_EPOCH":"4822","INCLINATION":"53.0569","EPOCH":"2022-02-09T08:25:22.542240","DECAY_DATE":null,"MEAN_MOTION":"15.06392743","APOAPSIS":"548.251","SEMIMAJOR_AXIS":"6925.371","NORAD_CAT_ID":"48139","RA_OF_ASC_NODE":"357.5141","LAUNCH_DATE":"2021-04-07","FILE":"3295989","PERIAPSIS":"546.221","MEAN_MOTION_DOT":"-0.00001041","EPHEMERIS_TYPE":"0","MEAN_ELEMENT_THEORY":"SGP4","PERIOD":"95.593","MEAN_MOTION_DDOT":"0.0000000000000","TLE_LINE2":"2 48139  53.0569 357.5141 0001466  74.9776 285.1375 15.06392743 48225"},{"NORAD_CAT_ID":"48140","SEMIMAJOR_AXIS":"6925.333","RA_OF_ASC_NODE":"16.1757","APOAPSIS":"548.291","MEAN_MOTION":"15.06404943","TLE_LINE2":"2 48140  53.0572  16.1757 0001577  74.1596 285.9566 15.06404943 47581","MEAN_MOTION_DDOT":"0.0000000000000","MEAN_ELEMENT_THEORY":"SGP4","PERIOD":"95.592","EPHEMERIS_TYPE":"0","MEAN_MOTION_DOT":"0.00004204","PERIAPSIS":"546.106","FILE":"3296269","LAUNCH_DATE":"2021-04-07","EPOCH":"2022-02-09T15:36:35.762688","INCLINATION":"53.0572","REV_AT_EPOCH":"4758","OBJECT_ID":"2021-027BA","REF_FRAME":"TEME","DECAY_DATE":null,"ECCENTRICITY":"0.00015770","CLASSIFICATION_TYPE":"U","OBJECT_NAME":"STARLINK-2483","GP_ID":"195648805","MEAN_ANOMALY":"285.9566","TLE_LINE1":"1 48140U 21027BA  22040.65041392  .00004204  00000-0  30089-3 0  9990","SITE":"AFETR","TIME_SYSTEM":"UTC","RCS_SIZE":"LARGE","ELEMENT_SET_NO":"999","OBJECT_TYPE":"PAYLOAD","BSTAR":"0.00030089000000","CENTER_NAME":"EARTH","ARG_OF_PERICENTER":"74.1596","COUNTRY_CODE":"US"},{"SEMIMAJOR_AXIS":"6925.336","NORAD_CAT_ID":"48141","RA_OF_ASC_NODE":"17.2736","MEAN_MOTION":"15.06403994","APOAPSIS":"548.226","MEAN_MOTION_DDOT":"0.0000000000000","TLE_LINE2":"2 48141  53.0555  17.2736 0001480  71.0311 289.0838 15.06403994 47960","EPHEMERIS_TYPE":"0","PERIOD":"95.592","MEAN_ELEMENT_THEORY":"SGP4","PERIAPSIS":"546.176","MEAN_MOTION_DOT":"0.00004402","LAUNCH_DATE":"2021-04-07","FILE":"3295989","EPOCH":"2022-02-09T09:47:39.286176","REV_AT_EPOCH":"4796","INCLINATION":"53.0555","OBJECT_ID":"2021-027BB","REF_FRAME":"TEME","DECAY_DATE":null,"ECCENTRICITY":"0.00014800","OBJECT_NAME":"STARLINK-2484","CLASSIFICATION_TYPE":"U","GP_ID":"195641093","TLE_LINE1":"1 48141U 21027BB  22040.40809359  .00004402  00000-0  31417-3 0  9995","SITE":"AFETR","MEAN_ANOMALY":"289.0838","RCS_SIZE":"LARGE","TIME_SYSTEM":"UTC","ELEMENT_SET_NO":"999","BSTAR":"0.00031417000000","OBJECT_TYPE":"PAYLOAD","CENTER_NAME":"EARTH","ARG_OF_PERICENTER":"71.0311","COUNTRY_CODE":"US"},{"COUNTRY_CODE":"US","ARG_OF_PERICENTER":"69.1196","CENTER_NAME":"EARTH","BSTAR":"0.00034111000000","OBJECT_TYPE":"PAYLOAD","ELEMENT_SET_NO":"999","RCS_SIZE":"LARGE","TIME_SYSTEM":"UTC","SITE":"AFETR","TLE_LINE1":"1 48142U 21027BC  22040.61265989  .00004804  00000-0  34111-3 0  9994","MEAN_ANOMALY":"290.9941","GP_ID":"195648812","OBJECT_NAME":"STARLINK-2485","CLASSIFICATION_TYPE":"U","ECCENTRICITY":"0.00013780","DECAY_DATE":null,"REF_FRAME":"TEME","OBJECT_ID":"2021-027BC","REV_AT_EPOCH":"4786","INCLINATION":"53.0563","EPOCH":"2022-02-09T14:42:13.814496","LAUNCH_DATE":"2021-04-07","FILE":"3296271","PERIAPSIS":"546.240","MEAN_MOTION_DOT":"0.00004804","EPHEMERIS_TYPE":"0","MEAN_ELEMENT_THEORY":"SGP4","PERIOD":"95.592","MEAN_MOTION_DDOT":"0.0000000000000","TLE_LINE2":"2 48142  53.0563 356.3519 0001378  69.1196 290.9941 15.06406380 47868","MEAN_MOTION":"15.06406380","APOAPSIS":"548.148","NORAD_CAT_ID":"48142","SEMIMAJOR_AXIS":"6925.329","RA_OF_ASC_NODE":"356.3519"},{"ECCENTRICITY":"0.00016040","CLASSIFICATION_TYPE":"U","OBJECT_NAME":"STARLINK-2486","GP_ID":"195639591","ELEMENT_SET_NO":"999","SITE":"AFETR","TLE_LINE1":"1 48143U 21027BD  22040.46290426  .00003701  00000-0  26730-3 0  9995","MEAN_ANOMALY":"294.0876","RCS_SIZE":"LARGE","TIME_SYSTEM":"UTC","ARG_OF_PERICENTER":"66.0281","COUNTRY_CODE":"US","BSTAR":"0.00026730000000","OBJECT_TYPE":"PAYLOAD","CENTER_NAME":"EARTH","APOAPSIS":"548.352","MEAN_MOTION":"15.06390991","SEMIMAJOR_AXIS":"6925.376","RA_OF_ASC_NODE":"312.0165","NORAD_CAT_ID":"48143","PERIAPSIS":"546.130","MEAN_MOTION_DOT":"0.00003701","LAUNCH_DATE":"2021-04-07","FILE":"3295989","MEAN_MOTION_DDOT":"0.0000000000000","TLE_LINE2":"2 48143  53.0573 312.0165 0001604  66.0281 294.0876 15.06390991 48862","EPHEMERIS_TYPE":"0","MEAN_ELEMENT_THEORY":"SGP4","PERIOD":"95.593","REF_FRAME":"TEME","OBJECT_ID":"2021-027BD","EPOCH":"2022-02-09T11:06:34.928064","REV_AT_EPOCH":"4886","INCLINATION":"53.0573","DECAY_DATE":null},{"APOAPSIS":"548.377","MEAN_MOTION":"15.06396958","SEMIMAJOR_AXIS":"6925.358","NORAD_CAT_ID":"48144","RA_OF_ASC_NODE":"357.8040","PERIAPSIS":"546.069","MEAN_MOTION_DOT":"0.00002413","LAUNCH_DATE":"2021-04-07","FILE":"3295989","MEAN_MOTION_DDOT":"0.0000000000000","TLE_LINE2":"2 48144  53.0561 357.8040 0001666  74.0791 286.0382 15.06396958 48202","EPHEMERIS_TYPE":"0","MEAN_ELEMENT_THEORY":"SGP4","PERIOD":"95.592","REF_FRAME":"TEME","OBJECT_ID":"2021-027BE","EPOCH":"2022-02-09T06:55:08.457312","REV_AT_EPOCH":"4820","INCLINATION":"53.0561","DECAY_DATE":null,"ECCENTRICITY":"0.00016660","CLASSIFICATION_TYPE":"U","OBJECT_NAME":"STARLINK-2487","GP_ID":"195640843","ELEMENT_SET_NO":"999","TLE_LINE1":"1 48144U 21027BE  22040.28829233  .00002413  00000-0  18082-3 0  9990","SITE":"AFETR","MEAN_ANOMALY":"286.0382","RCS_SIZE":"LARGE","TIME_SYSTEM":"UTC","ARG_OF_PERICENTER":"74.0791","COUNTRY_CODE":"US","BSTAR":"0.00018082000000","OBJECT_TYPE":"PAYLOAD","CENTER_NAME":"EARTH"},{"ARG_OF_PERICENTER":"68.1177","COUNTRY_CODE":"US","BSTAR":"0.00017603000000","OBJECT_TYPE":"PAYLOAD","CENTER_NAME":"EARTH","ELEMENT_SET_NO":"999","SITE":"AFETR","TLE_LINE1":"1 48145U 21027BF  22040.29197797  .00002341  00000-0  17603-3 0  9993","MEAN_ANOMALY":"291.9984","RCS_SIZE":"LARGE","TIME_SYSTEM":"UTC","GP_ID":"195640593","ECCENTRICITY":"0.00016180","OBJECT_NAME":"STARLINK-2488","CLASSIFICATION_TYPE":"U","DECAY_DATE":null,"REF_FRAME":"TEME","OBJECT_ID":"2021-027BF","EPOCH":"2022-02-09T07:00:26.896608","REV_AT_EPOCH":"4821","INCLINATION":"53.0569","PERIAPSIS":"546.097","MEAN_MOTION_DOT":"0.00002341","LAUNCH_DATE":"2021-04-07","FILE":"3295989","MEAN_MOTION_DDOT":"0.0000000000000","TLE_LINE2":"2 48145  53.0569 357.7798 0001618  68.1177 291.9984 15.06398679 48215","EPHEMERIS_TYPE":"0","PERIOD":"95.592","MEAN_ELEMENT_THEORY":"SGP4","MEAN_MOTION":"15.06398679","APOAPSIS":"548.338","NORAD_CAT_ID":"48145","SEMIMAJOR_AXIS":"6925.353","RA_OF_ASC_NODE":"357.7798"},{"ECCENTRICITY":"0.00015440","CLASSIFICATION_TYPE":"U","OBJECT_NAME":"STARLINK-2489","GP_ID":"195639842","ELEMENT_SET_NO":"999","TLE_LINE1":"1 48146U 21027BG  22040.35647550  .00000588  00000-0  58390-4 0  9998","SITE":"AFETR","MEAN_ANOMALY":"281.1402","RCS_SIZE":"LARGE","TIME_SYSTEM":"UTC","ARG_OF_PERICENTER":"78.9761","COUNTRY_CODE":"US","BSTAR":"0.00005839000000","OBJECT_TYPE":"PAYLOAD","CENTER_NAME":"EARTH","APOAPSIS":"548.293","MEAN_MOTION":"15.06396656","NORAD_CAT_ID":"48146","SEMIMAJOR_AXIS":"6925.359","RA_OF_ASC_NODE":"17.4976","PERIAPSIS":"546.155","MEAN_MOTION_DOT":"0.00000588","LAUNCH_DATE":"2021-04-07","FILE":"3295989","MEAN_MOTION_DDOT":"0.0000000000000","TLE_LINE2":"2 48146  53.0578  17.4976 0001544  78.9761 281.1402 15.06396656 47948","EPHEMERIS_TYPE":"0","MEAN_ELEMENT_THEORY":"SGP4","PERIOD":"95.592","OBJECT_ID":"2021-027BG","REF_FRAME":"TEME","EPOCH":"2022-02-09T08:33:19.483200","REV_AT_EPOCH":"4794","INCLINATION":"53.0578","DECAY_DATE":null}];
